NORAD_CAT_ID,OBJECT_NAME,OBJECT_TYPE,EPOCH,MEAN_MOTION,ECCENTRICITY,INCLINATION,RA_OF_ASC_NODE,ARG_OF_PERICENTER,MEAN_ANOMALY,BSTAR,MEAN_MOTION_DOT,MEAN_MOTION_DDOT,TLE_LINE0,TLE_LINE1,TLE_LINE2,SEMIMAJOR_AXIS,PERIOD,APOGEE,PERIGEE,DECAYED
54103.0,STARLINK-5200,PAYLOAD,2023-07-21 06:57:53,15.08850645,0.0001232,53.2175,314.6034,87.7917,272.3217,0.00046775,7.166e-05,0.0,0 STARLINK-5200,1 54103U 22136BE  23202.29019689  .00007166  00000-0  46775-3 0  9992,2 54103  53.2175 314.6034 0001232  87.7917 272.3217 15.08850645 42446,6917.848,95.437,540.565,538.861,0.0
54103.0,STARLINK-5200,PAYLOAD,2023-07-23 14:36:23,15.08835588,0.0001339,53.2162,304.1963,80.2438,279.8705,0.00013344,1.836e-05,0.0,0 STARLINK-5200,1 54103U 22136BE  23204.60860116  .00001836  00000-0  13344-3 0  9992,2 54103  53.2162 304.1963 0001339  80.2438 279.8705 15.08835588 42321,6917.894,95.438,540.685,538.833,0.0
54103.0,STARLINK-5200,PAYLOAD,2023-07-25 11:07:10,15.08839567,0.0001092,53.2163,295.8673,89.1158,270.9959,8.7002e-05,1.097e-05,0.0,0 STARLINK-5200,1 54103U 22136BE  23206.46332173  .00001097  00000-0  87002-4 0  9997,2 54103  53.2163 295.8673 0001092  89.1158 270.9959 15.08839567 43076,6917.882,95.438,540.502,538.991,0.0
54103.0,STARLINK-5200,PAYLOAD,2023-07-26 06:11:48,15.08837946,0.000107,53.2166,292.2982,94.7874,265.324,0.00014051,1.949e-05,0.0,0 STARLINK-5200,1 54103U 22136BE  23207.25820200  .00001949  00000-0  14051-3 0  9997,2 54103  53.2166 292.2982 0001070  94.7874 265.3240 15.08837946 42727,6917.887,95.438,540.492,539.011,0.0
54103.0,STARLINK-5200,PAYLOAD,2023-07-26 14:08:43,15.08847464,0.0001165,53.2165,290.8117,90.7921,269.3204,0.00023892,3.517e-05,0.0,0 STARLINK-5200,1 54103U 22136BE  23207.58939731  .00003517  00000-0  23892-3 0  9999,2 54103  53.2165 290.8117 0001165  90.7921 269.3204 15.08847464 43242,6917.858,95.437,540.529,538.917,0.0
54103.0,STARLINK-5200,PAYLOAD,2023-07-26 22:05:39,15.08848564,0.000109,53.2163,289.3248,94.5002,265.6115,0.00022885,3.357e-05,0.0,0 STARLINK-5200,1 54103U 22136BE  23207.92059538  .00003357  00000-0  22885-3 0  9998,2 54103  53.2163 289.3248 0001090  94.5002 265.6115 15.08848564 42822,6917.854,95.437,540.473,538.965,0.0
54103.0,STARLINK-5200,PAYLOAD,2023-07-27 17:10:17,15.08840048,3.73e-05,53.2157,285.7607,97.6596,262.4439,2.34e-05,8.5e-07,0.0,0 STARLINK-5200,1 54103U 22136BE  23208.71547531  .00000085  00000-0  23400-4 0  9991,2 54103  53.2157 285.7607 0000373  97.6596 262.4439 15.08840048 43418,6917.88,95.438,540.003,539.487,0.0
54103.0,STARLINK-5200,PAYLOAD,2023-07-28 05:53:23,15.08829282,0.0001036,53.2166,283.3777,93.2796,266.8315,-6.5168e-05,-1.324e-05,0.0,0 STARLINK-5200,1 54103U 22136BE  23209.24541278 -.00001324  00000-0 -65168-4 0  9998,2 54103  53.2166 283.3777 0001036  93.2796 266.8315 15.08829282 43497,6917.913,95.438,540.495,539.061,0.0
54103.0,STARLINK-5200,PAYLOAD,2023-07-28 15:25:42,15.08838218,0.0001233,53.2171,281.5932,96.7675,263.3457,1.6955e-05,-1.8e-07,0.0,0 STARLINK-5200,1 54103U 22136BE  23209.64284845 -.00000018  00000-0  16955-4 0  9994,2 54103  53.2171 281.5932 0001233  96.7675 263.3457 15.08838218 43554,6917.886,95.438,540.604,538.898,0.0
54103.0,STARLINK-5200,PAYLOAD,2023-07-29 10:30:18,15.08861285,0.0001436,53.2161,278.0253,91.523,268.5927,-0.00032512,-5.462e-05,0.0,0 STARLINK-5200,1 54103U 22136BE  23210.43771749 -.00005462  00000-0 -32512-3 0  9992,2 54103  53.2161 278.0253 0001436  91.5230 268.5927 15.08861285 43677,6917.815,95.436,540.674,538.687,0.0
54103.0,STARLINK-5200,PAYLOAD,2023-07-29 16:51:51,15.08852979,0.0001213,53.2162,276.836,86.8585,273.2546,0.0003398,5.126e-05,0.0,0 STARLINK-5200,1 54103U 22136BE  23210.70268095  .00005126  00000-0  33980-3 0  9992,2 54103  53.2162 276.8360 0001213  86.8585 273.2546 15.08852979 43711,6917.841,95.437,540.545,538.867,0.0
54103.0,STARLINK-5200,PAYLOAD,2023-07-30 10:21:06,15.08843253,0.0001211,53.2147,273.5654,83.1052,277.0077,0.00026477,3.929e-05,0.0,0 STARLINK-5200,1 54103U 22136BE  23211.43132713  .00003929  00000-0  26477-3 0  9992,2 54103  53.2147 273.5654 0001211  83.1052 277.0077 15.08843253 43829,6917.87,95.437,540.573,538.898,0.0
54103.0,STARLINK-5200,PAYLOAD,2023-07-31 14:58:03,15.08851625,0.0001373,53.2148,268.2137,83.8588,276.256,0.00053539,8.246e-05,0.0,0 STARLINK-5200,1 54103U 22136BE  23212.62364605  .00008246  00000-0  53539-3 0  9997,2 54103  53.2148 268.2137 0001373  83.8588 276.2560 15.08851625 44008,6917.845,95.437,540.66,538.76,0.0
54103.0,STARLINK-5200,PAYLOAD,2023-07-31 21:19:35,15.08842082,0.0001365,53.2153,267.0241,83.649,276.4657,0.000155,2.18e-05,0.0,0 STARLINK-5200,1 54103U 22136BE  23212.88860762  .00002180  00000-0  15500-3 0  9997,2 54103  53.2153 267.0241 0001365  83.6490 276.4657 15.08842082 44048,6917.874,95.437,540.683,538.795,0.0
54103.0,STARLINK-5200,PAYLOAD,2023-08-02 09:53:27,15.08841644,0.0001184,53.2151,260.1812,90.2944,269.8184,0.00014481,2.018e-05,0.0,0 STARLINK-5200,1 54103U 22136BE  23214.41212785  .00002018  00000-0  14481-3 0  9991,2 54103  53.2151 260.1812 0001184  90.2944 269.8184 15.08841644 44270,6917.875,95.437,540.559,538.921,0.0
54103.0,STARLINK-5200,PAYLOAD,2023-08-03 14:30:23,15.08850926,0.000128,53.2151,254.8317,99.7157,260.398,0.00018223,2.614e-05,0.0,0 STARLINK-5200,1 54103U 22136BE  23215.60444207  .00002614  00000-0  18223-3 0  9999,2 54103  53.2151 254.8317 0001280  99.7157 260.3980 15.08850926 44450,6917.847,95.437,540.597,538.827,0.0
54103.0,STARLINK-5200,PAYLOAD,2023-08-04 03:13:29,15.08839203,0.0002124,53.215,252.4531,68.6856,291.4363,4.5883e-05,4.42e-06,0.0,0 STARLINK-5200,1 54103U 22136BE  23216.13437080  .00000442  00000-0  45883-4 0  9999,2 54103  53.2150 252.4531 0002124  68.6856 291.4363 15.08839203 44534,6917.883,95.438,541.217,538.278,0.0
54103.0,STARLINK-5200,PAYLOAD,2023-08-05 09:25:49,15.08843795,0.0001201,53.2147,246.8029,92.7748,267.3382,0.00020349,2.952e-05,0.0,0 STARLINK-5200,1 54103U 22136BE  23217.39293082  .00002952  00000-0  20349-3 0  9997,2 54103  53.2147 246.8029 0001201  92.7748 267.3382 15.08843795 44727,6917.869,95.437,540.565,538.903,0.0
54103.0,STARLINK-5200,PAYLOAD,2023-08-06 10:51:59,15.08842109,0.0001181,53.2144,242.0443,90.2484,269.8643,0.00014768,2.063e-05,0.0,0 STARLINK-5200,1 54103U 22136BE  23218.45277152  .00002063  00000-0  14768-3 0  9996,2 54103  53.2144 242.0443 0001181  90.2484 269.8643 15.08842109 44881,6917.874,95.437,540.556,538.922,0.0
54103.0,STARLINK-5200,PAYLOAD,2023-08-07 01:10:28,15.0883503,0.000126,53.2146,239.3689,81.239,278.8745,1.7745e-05,-5e-08,0.0,0 STARLINK-5200,1 54103U 22136BE  23219.04893738 -.00000005  00000-0  17745-4 0  9990,2 54103  53.2146 239.3689 0001260  81.2390 278.8745 15.08835030 44976,6917.896,95.438,540.632,538.889,0.0
54103.0,STARLINK-5200,PAYLOAD,2023-08-08 07:22:47,15.08844886,0.0001172,53.2152,233.7186,79.3312,280.7812,9.7362e-05,1.262e-05,0.0,0 STARLINK-5200,1 54103U 22136BE  23220.30749356  .00001262  00000-0  97362-4 0  9995,2 54103  53.2152 233.7186 0001172  79.3312 280.7812 15.08844886 45165,6917.865,95.437,540.541,538.92,0.0
54103.0,STARLINK-5200,PAYLOAD,2023-08-09 11:59:43,15.08845448,0.0001178,53.2155,228.3652,82.0817,278.0308,0.00014472,2.016e-05,0.0,0 STARLINK-5200,1 54103U 22136BE  23221.49981143  .00002016  00000-0  14472-3 0  9996,2 54103  53.2155 228.3652 0001178  82.0817 278.0308 15.08845448 45348,6917.864,95.437,540.544,538.914,0.0
54103.0,STARLINK-5200,PAYLOAD,2023-08-10 07:04:21,15.08839005,0.0001237,53.2156,224.7955,85.4814,274.6319,1.6454e-05,-2.6e-07,0.0,0 STARLINK-5200,1 54103U 22136BE  23222.29469810 -.00000026  00000-0  16454-4 0  9990,2 54103  53.2156 224.7955 0001237  85.4814 274.6319 15.08839005 45464,6917.883,95.438,540.604,538.893,0.0
54103.0,STARLINK-5200,PAYLOAD,2023-08-11 16:27:27,15.08838957,0.000125,53.2157,218.5518,83.0666,277.0469,-8.4605e-06,-4.23e-06,0.0,0 STARLINK-5200,1 54103U 22136BE  23223.68573774 -.00000423  00000-0 -84605-5 0  9995,2 54103  53.2157 218.5518 0001250  83.0666 277.0469 15.08838957 45676,6917.884,95.438,540.613,538.884,0.0
54103.0,STARLINK-5200,PAYLOAD,2023-08-13 08:12:06,15.08841352,0.0001228,53.2159,211.1178,87.2079,272.9053,5.3391e-05,5.62e-06,0.0,0 STARLINK-5200,1 54103U 22136BE  23225.34173885  .00000562  00000-0  53391-4 0  9998,2 54103  53.2159 211.1178 0001228  87.2079 272.9053 15.08841352 45922,6917.876,95.437,540.591,538.892,0.0
54103.0,STARLINK-5200,PAYLOAD,2023-08-13 16:09:02,15.08832834,0.0001537,53.2151,209.6311,86.0373,274.0795,1.4308e-05,-6e-07,0.0,0 STARLINK-5200,1 54103U 22136BE  23225.67294690 -.00000060  00000-0  14308-4 0  9991,2 54103  53.2151 209.6311 0001537  86.0373 274.0795 15.08832834 45978,6917.902,95.438,540.831,538.704,0.0
54103.0,STARLINK-5200,PAYLOAD,2023-08-14 08:02:53,15.08842509,0.000129,53.2162,206.6559,90.3935,269.7205,6.6635e-05,7.73e-06,0.0,0 STARLINK-5200,1 54103U 22136BE  23226.33534023  .00000773  00000-0  66635-4 0  9992,2 54103  53.2162 206.6559 0001290  90.3935 269.7205 15.08842509 46078,6917.873,95.437,540.63,538.845,0.0
54103.0,STARLINK-5200,PAYLOAD,2023-08-14 15:59:49,15.08837523,0.0001283,53.2161,205.1698,88.2199,271.894,4.6955e-05,4.59e-06,0.0,0 STARLINK-5200,1 54103U 22136BE  23226.66654466  .00000459  00000-0  46955-4 0  9996,2 54103  53.2161 205.1698 0001283  88.2199 271.8940 15.08837523 46121,6917.888,95.438,540.641,538.865,0.0
54103.0,STARLINK-5200,PAYLOAD,2023-08-15 15:50:35,15.08851335,0.0001334,53.2161,200.7095,87.0554,273.0591,1.148e-05,-1.05e-06,0.0,0 STARLINK-5200,1 54103U 22136BE  23227.66013733 -.00000105  00000-0  11480-4 0  9997,2 54103  53.2161 200.7095 0001334  87.0554 273.0591 15.08851335 46271,6917.846,95.437,540.634,538.788,0.0
54103.0,STARLINK-5200,PAYLOAD,2023-08-16 01:22:54,15.08843897,0.000133,53.2159,198.9257,88.7482,271.3662,0.00014078,1.954e-05,0.0,0 STARLINK-5200,1 54103U 22136BE  23228.05758022  .00001954  00000-0  14078-3 0  9995,2 54103  53.2159 198.9257 0001330  88.7482 271.3662 15.08843897 46331,6917.868,95.437,540.654,538.813,0.0
